STARLINK-36333          
1 68256U 26054AA  26105.55587994  .00185560  00000+0  11820-2 0  9998
2 68256  53.1586 127.9929 0001283 143.1375 216.9734 15.75360923  4607
STARLINK-36745          
1 68257U 26054AB  26106.22211153  .00266822  00000+0  16220-2 0  9995
2 68257  53.1567 125.0488 0003065 227.0193 133.0571 15.76182800  4702
STARLINK-36890          
1 68258U 26054AC  26106.29543203 -.00770067  00000+0 -64065-2 0  9990
2 68258  53.1589 124.0629 0002965  11.8112 348.2976 15.71669918  4727
STARLINK-36323          
1 68259U 26054AD  26106.26740536  .00266085  00000+0  16838-2 0  9999
2 68259  53.1570 124.6159 0000770  66.5058 293.6043 15.75267464  4711
STARLINK-37056          
1 68260U 26054AE  26106.25002315 -.01942719  00000+0 -15363-1 0  9995
2 68260  53.1588 124.3295 0001208  69.7584  13.2611 15.74103644  5958
TEN-KOH 2               
1 68261U 25241B   26105.83021768  .00004974  00000+0  22194-3 0  9990
2 68261  51.6431 256.2725 0005041 297.6495  62.3970 15.23083660  5406
STARLINK-37162          
1 68262U 26055A   26106.13170801  .00417827  00000+0  19971-2 0  9995
2 68262  53.1565 149.6523 0001444 138.2361 221.8772 15.81117519  5607
STARLINK-37156          
1 68263U 26055B   26105.43554547  .00161888  00000+0  80721-3 0  9996
2 68263  53.1571 153.1327 0001653  33.3719 326.7408 15.80905940  5491
STARLINK-37163          
1 68264U 26055C   26105.43404288  .00174096  00000+0  86607-3 0  9997
2 68264  53.1577 153.1212 0001343  50.8541 309.2601 15.80919229  5490
STARLINK-37133          
1 68265U 26055D   26105.43479231  .00114181  00000+0  57351-3 0  9991
2 68265  53.1570 153.1278 0001300  63.1406 296.9749 15.80907095  5499
STARLINK-37042          
1 68266U 26055E   26105.43329043  .00188374  00000+0  93457-3 0  9999
2 68266  53.1569 153.1173 0000818  94.0347 266.0769 15.80935256  5492
STARLINK-37103          
1 68267U 26055F   26106.25439451  .00253386  00000+0  12384-2 0  9991
2 68267  53.1581 148.9919 0002710 125.9406 234.1869 15.81073922  5626
STARLINK-36999          
1 68268U 26055G   26106.12720631  .00231702  00000+0  11383-2 0  9997
2 68268  53.1568 149.6221 0001918 118.7801 241.3415 15.81023590  5605
STARLINK-36962          
1 68269U 26055H   26106.25289595  .00227718  00000+0  11189-2 0  9997
2 68269  53.1569 148.9863 0001120 121.6659 238.4473 15.81032388  5628
STARLINK-37028          
1 68270U 26055J   26106.12495449  .00391348  00000+0  18778-2 0  9994
2 68270  53.1577 149.6060 0002190 146.8890 213.2270 15.81104375  5600
STARLINK-37029          
1 68271U 26055K   26106.25214568  .00397020  00000+0  18997-2 0  9996
2 68271  53.1576 148.9772 0000835 143.3056 216.8024 15.81148028  5623
