[{"OBJECT_NAME":"STARLINK-36333","OBJECT_ID":"2026-054AA","EPOCH":"2026-04-15T13:20:28.026816","MEAN_MOTION":15.75360923,"ECCENTRICITY":0.0001283,"INCLINATION":53.1586,"RA_OF_ASC_NODE":127.9929,"ARG_OF_PERICENTER":143.1375,"MEAN_ANOMALY":216.9734,"EPHEMERIS_TYPE":0,"CLASSIFICATION_TYPE":"U","NORAD_CAT_ID":68256,"ELEMENT_SET_NO":999,"REV_AT_EPOCH":460,"BSTAR":0.001182,"MEAN_MOTION_DOT":0.0018556,"MEAN_MOTION_DDOT":0},{"OBJECT_NAME":"STARLINK-36745","OBJECT_ID":"2026-054AB","EPOCH":"2026-04-16T05:19:50.436192","MEAN_MOTION":15.761828,"ECCENTRICITY":0.00030655,"INCLINATION":53.1567,"RA_OF_ASC_NODE":125.0488,"ARG_OF_PERICENTER":227.0193,"MEAN_ANOMALY":133.0571,"EPHEMERIS_TYPE":0,"CLASSIFICATION_TYPE":"U","NORAD_CAT_ID":68257,"ELEMENT_SET_NO":999,"REV_AT_EPOCH":470,"BSTAR":0.0016219937,"MEAN_MOTION_DOT":0.00266822,"MEAN_MOTION_DDOT":0},{"OBJECT_NAME":"STARLINK-36890","OBJECT_ID":"2026-054AC","EPOCH":"2026-04-16T07:05:25.327392","MEAN_MOTION":15.71669918,"ECCENTRICITY":0.00029651,"INCLINATION":53.1589,"RA_OF_ASC_NODE":124.0629,"ARG_OF_PERICENTER":11.8112,"MEAN_ANOMALY":348.2976,"EPHEMERIS_TYPE":0,"CLASSIFICATION_TYPE":"U","NORAD_CAT_ID":68258,"ELEMENT_SET_NO":999,"REV_AT_EPOCH":472,"BSTAR":-0.0064065237,"MEAN_MOTION_DOT":-0.00770067,"MEAN_MOTION_DDOT":0},{"OBJECT_NAME":"STARLINK-36323","OBJECT_ID":"2026-054AD","EPOCH":"2026-04-16T06:25:03.823104","MEAN_MOTION":15.75267464,"ECCENTRICITY":7.701e-5,"INCLINATION":53.157,"RA_OF_ASC_NODE":124.6159,"ARG_OF_PERICENTER":66.5058,"MEAN_ANOMALY":293.6043,"EPHEMERIS_TYPE":0,"CLASSIFICATION_TYPE":"U","NORAD_CAT_ID":68259,"ELEMENT_SET_NO":999,"REV_AT_EPOCH":471,"BSTAR":0.0016837948,"MEAN_MOTION_DOT":0.00266085,"MEAN_MOTION_DDOT":0},{"OBJECT_NAME":"STARLINK-37056","OBJECT_ID":"2026-054AE","EPOCH":"2026-04-16T06:00:02.000160","MEAN_MOTION":15.74103644,"ECCENTRICITY":0.00012082,"INCLINATION":53.1588,"RA_OF_ASC_NODE":124.3295,"ARG_OF_PERICENTER":69.7584,"MEAN_ANOMALY":13.2611,"EPHEMERIS_TYPE":0,"CLASSIFICATION_TYPE":"U","NORAD_CAT_ID":68260,"ELEMENT_SET_NO":999,"REV_AT_EPOCH":595,"BSTAR":-0.015363171,"MEAN_MOTION_DOT":-0.01942719,"MEAN_MOTION_DDOT":0},{"OBJECT_NAME":"TEN-KOH 2","OBJECT_ID":"2025-241B","EPOCH":"2026-04-15T19:55:30.807552","MEAN_MOTION":15.2308366,"ECCENTRICITY":0.00050414,"INCLINATION":51.6431,"RA_OF_ASC_NODE":256.2725,"ARG_OF_PERICENTER":297.6495,"MEAN_ANOMALY":62.397,"EPHEMERIS_TYPE":0,"CLASSIFICATION_TYPE":"U","NORAD_CAT_ID":68261,"ELEMENT_SET_NO":999,"REV_AT_EPOCH":540,"BSTAR":0.00022194088,"MEAN_MOTION_DOT":4.974e-5,"MEAN_MOTION_DDOT":0},{"OBJECT_NAME":"STARLINK-37162","OBJECT_ID":"2026-055A","EPOCH":"2026-04-16T03:09:39.572064","MEAN_MOTION":15.81117519,"ECCENTRICITY":0.00014447,"INCLINATION":53.1565,"RA_OF_ASC_NODE":149.6523,"ARG_OF_PERICENTER":138.2361,"MEAN_ANOMALY":221.8772,"EPHEMERIS_TYPE":0,"CLASSIFICATION_TYPE":"U","NORAD_CAT_ID":68262,"ELEMENT_SET_NO":999,"REV_AT_EPOCH":560,"BSTAR":0.0019971234,"MEAN_MOTION_DOT":0.00417827,"MEAN_MOTION_DDOT":0},{"OBJECT_NAME":"STARLINK-37156","OBJECT_ID":"2026-055B","EPOCH":"2026-04-15T10:27:11.128608","MEAN_MOTION":15.8090594,"ECCENTRICITY":0.00016533,"INCLINATION":53.1571,"RA_OF_ASC_NODE":153.1327,"ARG_OF_PERICENTER":33.3719,"MEAN_ANOMALY":326.7408,"EPHEMERIS_TYPE":0,"CLASSIFICATION_TYPE":"U","NORAD_CAT_ID":68263,"ELEMENT_SET_NO":999,"REV_AT_EPOCH":549,"BSTAR":0.00080721418,"MEAN_MOTION_DOT":0.00161888,"MEAN_MOTION_DDOT":0},{"OBJECT_NAME":"STARLINK-37163","OBJECT_ID":"2026-055C","EPOCH":"2026-04-15T10:25:01.304832","MEAN_MOTION":15.80919229,"ECCENTRICITY":0.00013437,"INCLINATION":53.1577,"RA_OF_ASC_NODE":153.1212,"ARG_OF_PERICENTER":50.8541,"MEAN_ANOMALY":309.2601,"EPHEMERIS_TYPE":0,"CLASSIFICATION_TYPE":"U","NORAD_CAT_ID":68264,"ELEMENT_SET_NO":999,"REV_AT_EPOCH":549,"BSTAR":0.0008660727,"MEAN_MOTION_DOT":0.00174096,"MEAN_MOTION_DDOT":0},{"OBJECT_NAME":"STARLINK-37133","OBJECT_ID":"2026-055D","EPOCH":"2026-04-15T10:26:06.055584","MEAN_MOTION":15.80907095,"ECCENTRICITY":0.00013008,"INCLINATION":53.157,"RA_OF_ASC_NODE":153.1278,"ARG_OF_PERICENTER":63.1406,"MEAN_ANOMALY":296.9749,"EPHEMERIS_TYPE":0,"CLASSIFICATION_TYPE":"U","NORAD_CAT_ID":68265,"ELEMENT_SET_NO":999,"REV_AT_EPOCH":549,"BSTAR":0.00057351156,"MEAN_MOTION_DOT":0.00114181,"MEAN_MOTION_DDOT":0},{"OBJECT_NAME":"STARLINK-37042","OBJECT_ID":"2026-055E","EPOCH":"2026-04-15T10:23:56.293152","MEAN_MOTION":15.80935256,"ECCENTRICITY":8.18e-5,"INCLINATION":53.1569,"RA_OF_ASC_NODE":153.1173,"ARG_OF_PERICENTER":94.0347,"MEAN_ANOMALY":266.0769,"EPHEMERIS_TYPE":0,"CLASSIFICATION_TYPE":"U","NORAD_CAT_ID":68266,"ELEMENT_SET_NO":999,"REV_AT_EPOCH":549,"BSTAR":0.00093457292,"MEAN_MOTION_DOT":0.00188374,"MEAN_MOTION_DDOT":0},{"OBJECT_NAME":"STARLINK-37103","OBJECT_ID":"2026-055F","EPOCH":"2026-04-16T06:06:19.685664","MEAN_MOTION":15.81073922,"ECCENTRICITY":0.00027103,"INCLINATION":53.1581,"RA_OF_ASC_NODE":148.9919,"ARG_OF_PERICENTER":125.9406,"MEAN_ANOMALY":234.1869,"EPHEMERIS_TYPE":0,"CLASSIFICATION_TYPE":"U","NORAD_CAT_ID":68267,"ELEMENT_SET_NO":999,"REV_AT_EPOCH":562,"BSTAR":0.0012384255,"MEAN_MOTION_DOT":0.00253386,"MEAN_MOTION_DDOT":0},{"OBJECT_NAME":"STARLINK-36999","OBJECT_ID":"2026-055G","EPOCH":"2026-04-16T03:03:10.625184","MEAN_MOTION":15.8102359,"ECCENTRICITY":0.0001918,"INCLINATION":53.1568,"RA_OF_ASC_NODE":149.6221,"ARG_OF_PERICENTER":118.7801,"MEAN_ANOMALY":241.3415,"EPHEMERIS_TYPE":0,"CLASSIFICATION_TYPE":"U","NORAD_CAT_ID":68268,"ELEMENT_SET_NO":999,"REV_AT_EPOCH":560,"BSTAR":0.0011382959,"MEAN_MOTION_DOT":0.00231702,"MEAN_MOTION_DDOT":0},{"OBJECT_NAME":"STARLINK-36962","OBJECT_ID":"2026-055H","EPOCH":"2026-04-16T06:04:10.210080","MEAN_MOTION":15.81032388,"ECCENTRICITY":0.00011209,"INCLINATION":53.1569,"RA_OF_ASC_NODE":148.9863,"ARG_OF_PERICENTER":121.6659,"MEAN_ANOMALY":238.4473,"EPHEMERIS_TYPE":0,"CLASSIFICATION_TYPE":"U","NORAD_CAT_ID":68269,"ELEMENT_SET_NO":999,"REV_AT_EPOCH":562,"BSTAR":0.0011188636,"MEAN_MOTION_DOT":0.00227718,"MEAN_MOTION_DDOT":0},{"OBJECT_NAME":"STARLINK-37028","OBJECT_ID":"2026-055J","EPOCH":"2026-04-16T02:59:56.067936","MEAN_MOTION":15.81104375,"ECCENTRICITY":0.00021902,"INCLINATION":53.1577,"RA_OF_ASC_NODE":149.606,"ARG_OF_PERICENTER":146.889,"MEAN_ANOMALY":213.227,"EPHEMERIS_TYPE":0,"CLASSIFICATION_TYPE":"U","NORAD_CAT_ID":68270,"ELEMENT_SET_NO":999,"REV_AT_EPOCH":560,"BSTAR":0.0018777578,"MEAN_MOTION_DOT":0.00391348,"MEAN_MOTION_DDOT":0},{"OBJECT_NAME":"STARLINK-37029","OBJECT_ID":"2026-055K","EPOCH":"2026-04-16T06:03:05.386752","MEAN_MOTION":15.81148028,"ECCENTRICITY":8.356e-5,"INCLINATION":53.1576,"RA_OF_ASC_NODE":148.9772,"ARG_OF_PERICENTER":143.3056,"MEAN_ANOMALY":216.8024,"EPHEMERIS_TYPE":0,"CLASSIFICATION_TYPE":"U","NORAD_CAT_ID":68271,"ELEMENT_SET_NO":999,"REV_AT_EPOCH":562,"BSTAR":0.0018997281,"MEAN_MOTION_DOT":0.0039702,"MEAN_MOTION_DDOT":0}]
